[{"OBJECT_NAME":"STARLINK-5729","OBJECT_ID":"2023-020AD","EPOCH":"2026-03-09T22:00:01.999584","MEAN_MOTION":15.10104174,"ECCENTRICITY":9.821e-5,"INCLINATION":42.9997,"RA_OF_ASC_NODE":2.8491,"ARG_OF_PERICENTER":242.2129,"MEAN_ANOMALY":346.1294,"EPHEMERIS_TYPE":0,"CLASSIFICATION_TYPE":"U","NORAD_CAT_ID":55596,"ELEMENT_SET_NO":999,"REV_AT_EPOCH":577,"BSTAR":0.073258172,"MEAN_MOTION_DOT":0.01319331,"MEAN_MOTION_DDOT":0},{"OBJECT_NAME":"PEGASUS DEB","OBJECT_ID":"1994-029EN","EPOCH":"2026-03-09T15:28:18.113376","MEAN_MOTION":15.06103636,"ECCENTRICITY":0.0063203,"INCLINATION":81.992,"RA_OF_ASC_NODE":119.5258,"ARG_OF_PERICENTER":162.6478,"MEAN_ANOMALY":325.8514,"EPHEMERIS_TYPE":0,"CLASSIFICATION_TYPE":"U","NORAD_CAT_ID":24091,"ELEMENT_SET_NO":999,"REV_AT_EPOCH":61530,"BSTAR":0.00036871,"MEAN_MOTION_DOT":5.666e-5,"MEAN_MOTION_DDOT":0}]
